     3.02           N: GNSS NAV DATA    G: GPS              RINEX VERSION / TYPE                                                
Версия от 220825                        20231231 01:06:01UTCPGM / RUN BY / DATE                                                 
GPUT -0.9313225746D-09 0.000000000D+00 503808 2294          TIME SYSTEM CORR
                                                            END OF HEADER                                                       
G16 2023 12 28 00 00 00-0.395816285163D-03 0.738964445190D-11 0.000000000000D+00
     0.350000000000D+02 0.215625000000D+02 0.433410910447D-08-0.300835318948D+01
     0.882893800735D-06 0.138670590241D-01 0.994279980659D-05 0.515370879746D+04
     0.345600000000D+06 0.242143869400D-07 0.276924667861D+01-0.281259417534D-06
     0.963342604618D+00 0.189406250000D+03 0.811731829900D+00-0.750281252226D-08
    -0.557166065346D-09 0.100000000000D+01 0.229400000000D+04 0.000000000000D+00
     0.200000000000D+01 0.000000000000D+00-0.102445483208D-07 0.350000000000D+02
     0.338400000000D+06
G17 2023 12 28 00 00 00 0.721183605492D-03-0.795807864051D-12 0.000000000000D+00
     0.690000000000D+02 0.141906250000D+03 0.397123684653D-08 0.232088590612D+01
     0.737234950066D-05 0.137501530116D-01 0.771507620812D-05 0.515364764595D+04
     0.345600000000D+06 0.163912773132D-06-0.249321756223D+01-0.447034835815D-07
     0.971462153984D+00 0.229250000000D+03-0.135389322873D+01-0.752638493271D-08
    -0.464305054455D-10 0.100000000000D+01 0.229400000000D+04 0.000000000000D+00
     0.200000000000D+01 0.000000000000D+00-0.111758708954D-07 0.690000000000D+02
     0.338400000000D+06
G18 2023 12 28 00 00 00-0.517495442182D-03-0.966338120634D-11 0.000000000000D+00
     0.133000000000D+03 0.251875000000D+02 0.446840041253D-08 0.216405742488D+00
     0.121444463730D-05 0.382882624399D-02-0.258907675743D-06 0.515363595963D+04
     0.345600000000D+06 0.521540641785D-07-0.148864309724D+01-0.298023223877D-07
     0.974179016684D+00 0.388968750000D+03-0.301693694616D+01-0.836141971527D-08
    -0.285726187357D-10 0.100000000000D+01 0.229400000000D+04 0.000000000000D+00
     0.200000000000D+01 0.000000000000D+00-0.838190317154D-08 0.645000000000D+03
     0.338400000000D+06
G19 2023 12 28 00 00 00 0.418459530920D-03 0.522959453519D-11 0.000000000000D+00
     0.800000000000D+01 0.136437500000D+03 0.409088468748D-08-0.191568745194D+01
     0.717118382454D-05 0.939353997819D-02 0.795908272266D-05 0.515367945099D+04
     0.345600000000D+06-0.229105353355D-06-0.244881171676D+01 0.111758708954D-07
     0.970574613288D+00 0.234218750000D+03 0.246330045449D+01-0.780532512312D-08
     0.117147736816D-09 0.100000000000D+01 0.229400000000D+04 0.000000000000D+00
     0.200000000000D+01 0.000000000000D+00-0.153668224812D-07 0.800000000000D+01
     0.338418000000D+06
G20 2023 12 28  0  0  0 0.394471921027D-03-0.193267624127D-11 0.000000000000D+00
     0.340000000000D+02-0.119125000000D+03 0.464483633322D-08 0.885624432121D+00
    -0.615976750851D-05 0.402573891915D-02 0.372901558876D-05 0.515368596840D+04
     0.345600000000D+06-0.335276126862D-07-0.632868586888D+00 0.838190317154D-07
     0.951826210674D+00 0.304750000000D+03-0.269902307785D+01-0.826748723117D-08
    -0.289297764699D-09 0.100000000000D+01 0.229400000000D+04 0.000000000000D+00
     0.200000000000D+01 0.000000000000D+00-0.838190317154D-08 0.340000000000D+02
     0.338418000000D+06
G21 2023 12 28 00 00 00 0.140245072544D-03-0.113686837722D-11 0.000000000000D+00
     0.380000000000D+02 0.762812500000D+02 0.472091093060D-08 0.226428658287D+01
     0.402890145779D-05 0.251336274669D-01-0.907108187676D-06 0.515374369049D+04
     0.345600000000D+06 0.324100255966D-06-0.159619993289D+01 0.294297933578D-06
     0.961626162835D+00 0.393500000000D+03-0.662805762943D+00-0.829248827257D-08
    -0.147863301957D-09 0.100000000000D+01 0.229400000000D+04 0.000000000000D+00
     0.200000000000D+01 0.000000000000D+00-0.102445483208D-07 0.380000000000D+02
     0.338400000000D+06
G22 2023 12 28 00 00 00 0.584051012993D-04-0.670752342558D-11 0.000000000000D+00
     0.400000000000D+01 0.153750000000D+02 0.431267964042D-08 0.284574628130D+01
     0.810250639915D-06 0.147516282741D-01 0.967830419540D-05 0.515372329521D+04
     0.345600000000D+06 0.169500708580D-06 0.277254521948D+01 0.124797224999D-06
     0.962633569186D+00 0.190062500000D+03-0.115128916304D+01-0.747602569219D-08
    -0.617882880159D-09 0.100000000000D+01 0.229400000000D+04 0.000000000000D+00
     0.200000000000D+01 0.000000000000D+00-0.111758708954D-07 0.400000000000D+01
     0.338418000000D+06
G23 2023 12 28 00 00 00 0.124114565551D-03 0.716227077646D-11 0.000000000000D+00
     0.178000000000D+03-0.137250000000D+03 0.400766693541D-08-0.823006429818D+00
    -0.721029937267D-05 0.393030885607D-02 0.555627048016D-05 0.515370359039D+04
     0.345600000000D+06 0.949949026108D-07-0.488166009777D+00-0.707805156708D-07
     0.977264208508D+00 0.283500000000D+03-0.299712891395D+01-0.786997067301D-08
    -0.290726395636D-09 0.100000000000D+01 0.229400000000D+04 0.000000000000D+00
     0.200000000000D+01 0.000000000000D+00-0.838190317154D-08 0.946000000000D+03
     0.338400000000D+06
G24 2023 12 28 00 00 00-0.402335543185D-03-0.773070496507D-11 0.000000000000D+00
     0.130000000000D+02 0.148750000000D+02 0.555737434409D-08 0.487583219787D+00
     0.754371285439D-06 0.150156720774D-01 0.534579157829D-05 0.515361151695D+04
     0.345600000000D+06-0.180676579475D-06 0.154131489654D+01 0.158324837685D-06
     0.933395426592D+00 0.264250000000D+03 0.955718566086D+00-0.861893044162D-08
     0.176793078427D-09 0.100000000000D+01 0.229400000000D+04 0.000000000000D+00
     0.200000000000D+01 0.000000000000D+00 0.232830643654D-08 0.130000000000D+02
     0.338418000000D+06
G25 2023 12 28  0  0  0 0.483137089759D-03 0.147792889038D-11 0.000000000000D+00
     0.580000000000D+02 0.750000000000D+01 0.475734101949D-08-0.139739885148D+01
     0.530853867531D-06 0.116676856996D-01 0.854209065437D-05 0.515363105202D+04
     0.345600000000D+06 0.268220901489D-06 0.266644562579D+01 0.189989805222D-06
     0.951521351712D+00 0.209031250000D+03 0.106325548849D+01-0.787532803902D-08
    -0.519307345521D-09 0.100000000000D+01 0.229400000000D+04 0.000000000000D+00
     0.200000000000D+01 0.000000000000D+00 0.558793544769D-08 0.580000000000D+02
     0.338418000000D+06
G26 2023 12 28 00 00 00 0.205585733056D-03-0.329691829393D-11 0.000000000000D+00
     0.560000000000D+02-0.228125000000D+01 0.520771692231D-08-0.221634065558D+01
    -0.432133674622D-06 0.869048899040D-02 0.852905213833D-05 0.515355647278D+04
     0.345600000000D+06 0.100582838059D-06 0.260681433751D+01-0.152736902237D-06
     0.932232378923D+00 0.199625000000D+03 0.509176610392D+00-0.807962226298D-08
    -0.463947896721D-09 0.100000000000D+01 0.229400000000D+04 0.000000000000D+00
     0.200000000000D+01 0.000000000000D+00 0.698491930962D-08 0.560000000000D+02
     0.338400000000D+06
G27 2023 12 28 00 00 00-0.881440937519D-04-0.420641299570D-11 0.000000000000D+00
     0.580000000000D+02 0.151687500000D+03 0.414624413628D-08 0.238514155744D+01
     0.774115324020D-05 0.120600864757D-01 0.894255936146D-05 0.515367812347D+04
     0.345600000000D+06-0.139698386192D-06-0.256038426253D+01-0.245869159698D-06
     0.964761562009D+00 0.207125000000D+03 0.745273572550D+00-0.765389024382D-08
     0.717887045734D-10 0.100000000000D+01 0.229400000000D+04 0.000000000000D+00
     0.200000000000D+01 0.000000000000D+00 0.186264514923D-08 0.580000000000D+02
     0.338400000000D+06
G28 2023 12 28 00 00 00-0.818469561636D-04-0.105728759081D-10 0.000000000000D+00
     0.194000000000D+03 0.462500000000D+01 0.481091467962D-08-0.205538706134D+01
     0.333413481712D-06 0.748878228478D-03 0.520423054695D-05 0.515354821777D+04
     0.345600000000D+06 0.186264514923D-08 0.160091404157D+01 0.558793544769D-08
     0.960866005732D+00 0.275562500000D+03 0.169756714605D+01-0.800497629654D-08
     0.242510101519D-09 0.100000000000D+01 0.229400000000D+04 0.000000000000D+00
     0.200000000000D+01 0.000000000000D+00-0.931322574616D-08 0.706000000000D+03
     0.338418000000D+06
G29 2023 12 28 00 00 00-0.609379727393D-03 0.341060513165D-12 0.000000000000D+00
     0.850000000000D+02 0.135875000000D+03 0.409231331842D-08 0.223930850161D+01
     0.715069472790D-05 0.252289825585D-02 0.739842653274D-05 0.515367226982D+04
     0.345600000000D+06 0.651925802231D-07-0.247859097958D+01 0.260770320892D-07
     0.973806655756D+00 0.244250000000D+03 0.254181863251D+01-0.777568103118D-08
     0.675028117631D-10 0.100000000000D+01 0.229400000000D+04 0.000000000000D+00
     0.280000000000D+01 0.000000000000D+00-0.102445483208D-07 0.850000000000D+02
     0.338418000000D+06
G30 2023 12 28 00 00 00-0.452426727861D-03 0.443378667114D-11 0.000000000000D+00
     0.510000000000D+02 0.712500000000D+01 0.545701302078D-08-0.660939494943D+00
     0.461935997009D-06 0.664871942718D-02 0.493042171001D-05 0.515370370865D+04
     0.345600000000D+06 0.912696123123D-07 0.163865131689D+01 0.968575477600D-07
     0.934871042800D+00 0.268812500000D+03-0.255031485988D+01-0.842856536929D-08
     0.220723479733D-09 0.100000000000D+01 0.229400000000D+04 0.000000000000D+00
     0.200000000000D+01 0.000000000000D+00 0.372529029846D-08 0.510000000000D+02
     0.338400000000D+06
G31 2023 12 28 00 00 00-0.226925592869D-03-0.227373675443D-12 0.000000000000D+00
     0.960000000000D+02 0.278125000000D+01 0.498377902297D-08-0.141653819262D+01
     0.163912773132D-06 0.106235184940D-01 0.464543700218D-05 0.515365227508D+04
     0.345600000000D+06 0.191852450371D-06 0.165665091318D+01-0.100582838059D-06
     0.953759916272D+00 0.278406250000D+03 0.643979623788D+00-0.804212070089D-08
     0.266082511976D-09 0.100000000000D+01 0.229400000000D+04 0.000000000000D+00
     0.280000000000D+01 0.000000000000D+00-0.135041773319D-07 0.960000000000D+02
     0.338400000000D+06
